{
  "type": "FeatureCollection",
  "features": [
    {
      "type": "Feature",
      "properties": {
        "norad_id": 40894,
        "name": "GAOFEN-9 01",
        "group": "resource",
        "lat": -4.678694333647105,
        "lon": -154.45865871456576,
        "alt_km": 642.8500458282806,
        "timestamp": "2025-12-13T05:42:57.154335+00:00",
        "meta_object_name": "GAOFEN-9 01",
        "meta_object_id": "2015-047A",
        "meta_epoch": "2025-12-12T07:49:39.824832",
        "meta_mean_motion": 14.82421125,
        "meta_eccentricity": 0.00284246,
        "meta_inclination": 97.6546,
        "meta_ra_of_asc_node": 25.2993,
        "meta_arg_of_pericenter": 35.6439,
        "meta_mean_anomaly": 324.6666,
        "meta_ephemeris_type": 0,
        "meta_classification_type": "U",
        "meta_norad_cat_id": 40894,
        "meta_element_set_no": 999,
        "meta_rev_at_epoch": 55250,
        "meta_bstar": 0.00027066989,
        "meta_mean_motion_dot": 2.133e-05,
        "meta_mean_motion_ddot": 0,
        "tle_line1": "1 40894U 15047A   25346.32615538  .00002133  00000+0  27067-3 0  9998",
        "tle_line2": "2 40894  97.6546  25.2993 0028424  35.6439 324.6666 14.82421125552504"
      },
      "geometry": {
        "type": "Point",
        "coordinates": [
          -154.45865871456576,
          -4.678694333647105
        ]
      }
    },
    {
      "type": "Feature",
      "properties": {
        "norad_id": 41026,
        "name": "YAOGAN-28",
        "group": "resource",
        "lat": 50.16454485000759,
        "lon": 116.20054307586685,
        "alt_km": 485.6981235627172,
        "timestamp": "2025-12-13T05:42:57.154345+00:00",
        "meta_object_name": "YAOGAN-28",
        "meta_object_id": "2015-064A",
        "meta_epoch": "2025-12-12T07:26:15.648576",
        "meta_mean_motion": 15.24341869,
        "meta_eccentricity": 0.00123999,
        "meta_inclination": 97.2803,
        "meta_ra_of_asc_node": 124.114,
        "meta_arg_of_pericenter": 127.3,
        "meta_mean_anomaly": 232.937,
        "meta_ephemeris_type": 0,
        "meta_classification_type": "U",
        "meta_norad_cat_id": 41026,
        "meta_element_set_no": 999,
        "meta_rev_at_epoch": 56218,
        "meta_bstar": 0.00048062052,
        "meta_mean_motion_dot": 0.00011723,
        "meta_mean_motion_ddot": 0,
        "tle_line1": "1 41026U 15064A   25346.30990334  .00011723  00000+0  48062-3 0  9996",
        "tle_line2": "2 41026  97.2803 124.1140 0012399 127.3000 232.9370 15.24341869562185"
      },
      "geometry": {
        "type": "Point",
        "coordinates": [
          116.20054307586685,
          50.16454485000759
        ]
      }
    },
    {
      "type": "Feature",
      "properties": {
        "norad_id": 41038,
        "name": "YAOGAN-29",
        "group": "resource",
        "lat": 71.31675655403484,
        "lon": -14.237599011879867,
        "alt_km": 613.4333263033468,
        "timestamp": "2025-12-13T05:42:57.154356+00:00",
        "meta_object_name": "YAOGAN-29",
        "meta_object_id": "2015-069A",
        "meta_epoch": "2025-12-12T08:20:04.644672",
        "meta_mean_motion": 14.82880244,
        "meta_eccentricity": 2.579e-05,
        "meta_inclination": 98.0221,
        "meta_ra_of_asc_node": 9.5174,
        "meta_arg_of_pericenter": 321.6503,
        "meta_mean_anomaly": 38.4692,
        "meta_ephemeris_type": 0,
        "meta_classification_type": "U",
        "meta_norad_cat_id": 41038,
        "meta_element_set_no": 999,
        "meta_rev_at_epoch": 54293,
        "meta_bstar": 7.302433e-05,
        "meta_mean_motion_dot": 5.37e-06,
        "meta_mean_motion_ddot": 0,
        "tle_line1": "1 41038U 15069A   25346.34727598  .00000537  00000+0  73024-4 0  9996",
        "tle_line2": "2 41038  98.0221   9.5174 0000257 321.6503  38.4692 14.82880244542936"
      },
      "geometry": {
        "type": "Point",
        "coordinates": [
          -14.237599011879867,
          71.31675655403484
        ]
      }
    },
    {
      "type": "Feature",
      "properties": {
        "norad_id": 41167,
        "name": "KENT RIDGE 1",
        "group": "resource",
        "lat": 8.26096467600854,
        "lon": -119.65474045099438,
        "alt_km": 498.38159107721367,
        "timestamp": "2025-12-13T05:42:57.154366+00:00",
        "meta_object_name": "KENT RIDGE 1",
        "meta_object_id": "2015-077B",
        "meta_epoch": "2025-12-11T22:06:14.080320",
        "meta_mean_motion": 15.21626182,
        "meta_eccentricity": 0.0008513,
        "meta_inclination": 14.9787,
        "meta_ra_of_asc_node": 217.2158,
        "meta_arg_of_pericenter": 119.1546,
        "meta_mean_anomaly": 240.9628,
        "meta_ephemeris_type": 0,
        "meta_classification_type": "U",
        "meta_norad_cat_id": 41167,
        "meta_element_set_no": 999,
        "meta_rev_at_epoch": 55251,
        "meta_bstar": 0.00026336,
        "meta_mean_motion_dot": 6.894e-05,
        "meta_mean_motion_ddot": 0,
        "tle_line1": "1 41167U 15077B   25345.92099630  .00006894  00000+0  26336-3 0  9995",
        "tle_line2": "2 41167  14.9787 217.2158 0008513 119.1546 240.9628 15.21626182552510"
      },
      "geometry": {
        "type": "Point",
        "coordinates": [
          -119.65474045099438,
          8.26096467600854
        ]
      }
    },
    {
      "type": "Feature",
      "properties": {
        "norad_id": 41194,
        "name": "GAOFEN-4",
        "group": "resource",
        "lat": -0.05460787175749659,
        "lon": -86.36971570047332,
        "alt_km": 35785.92647651577,
        "timestamp": "2025-12-13T05:42:57.154391+00:00",
        "meta_object_name": "GAOFEN-4",
        "meta_object_id": "2015-083A",
        "meta_epoch": "2025-12-12T07:07:47.648928",
        "meta_mean_motion": 1.00269632,
        "meta_eccentricity": 0.00034944,
        "meta_inclination": 0.1696,
        "meta_ra_of_asc_node": 81.0717,
        "meta_arg_of_pericenter": 105.869,
        "meta_mean_anomaly": 106.9474,
        "meta_ephemeris_type": 0,
        "meta_classification_type": "U",
        "meta_norad_cat_id": 41194,
        "meta_element_set_no": 999,
        "meta_rev_at_epoch": 3665,
        "meta_bstar": 0,
        "meta_mean_motion_dot": -3.24e-06,
        "meta_mean_motion_ddot": 0,
        "tle_line1": "1 41194U 15083A   25346.29707927 -.00000324  00000+0  00000+0 0  9997",
        "tle_line2": "2 41194   0.1696  81.0717 0003494 105.8690 106.9474  1.00269632 36656"
      },
      "geometry": {
        "type": "Point",
        "coordinates": [
          -86.36971570047332,
          -0.05460787175749659
        ]
      }
    },
    {
      "type": "Feature",
      "properties": {
        "norad_id": 41240,
        "name": "JASON-3",
        "group": "resource",
        "lat": 63.493002353985226,
        "lon": -86.29643448121911,
        "alt_km": 1309.2779355735083,
        "timestamp": "2025-12-13T05:42:57.154404+00:00",
        "meta_object_name": "JASON-3",
        "meta_object_id": "2016-002A",
        "meta_epoch": "2025-12-12T06:49:14.357280",
        "meta_mean_motion": 12.87626495,
        "meta_eccentricity": 0.00071435,
        "meta_inclination": 66.0389,
        "meta_ra_of_asc_node": 158.7819,
        "meta_arg_of_pericenter": 270.8199,
        "meta_mean_anomaly": 89.2001,
        "meta_ephemeris_type": 0,
        "meta_classification_type": "U",
        "meta_norad_cat_id": 41240,
        "meta_element_set_no": 999,
        "meta_rev_at_epoch": 46318,
        "meta_bstar": 0.00010687864,
        "meta_mean_motion_dot": -3.5e-07,
        "meta_mean_motion_ddot": 0,
        "tle_line1": "1 41240U 16002A   25346.28419395 -.00000035  00000+0  10688-3 0  9995",
        "tle_line2": "2 41240  66.0389 158.7819 0007143 270.8199  89.2001 12.87626495463187"
      },
      "geometry": {
        "type": "Point",
        "coordinates": [
          -86.29643448121911,
          63.493002353985226
        ]
      }
    },
    {
      "type": "Feature",
      "properties": {
        "norad_id": 41335,
        "name": "SENTINEL-3A",
        "group": "resource",
        "lat": 31.23409283034976,
        "lon": 46.95759164017902,
        "alt_km": 800.517467426198,
        "timestamp": "2025-12-13T05:42:57.154416+00:00",
        "meta_object_name": "SENTINEL-3A",
        "meta_object_id": "2016-011A",
        "meta_epoch": "2025-12-12T06:00:15.692832",
        "meta_mean_motion": 14.26730438,
        "meta_eccentricity": 9.538e-05,
        "meta_inclination": 98.6316,
        "meta_ra_of_asc_node": 51.2687,
        "meta_arg_of_pericenter": 90.4124,
        "meta_mean_anomaly": 269.7166,
        "meta_ephemeris_type": 0,
        "meta_classification_type": "U",
        "meta_norad_cat_id": 41335,
        "meta_element_set_no": 999,
        "meta_rev_at_epoch": 51140,
        "meta_bstar": 0.00013537434,
        "meta_mean_motion_dot": 2.84e-06,
        "meta_mean_motion_ddot": 0,
        "tle_line1": "1 41335U 16011A   25346.25018163  .00000284  00000+0  13537-3 0  9996",
        "tle_line2": "2 41335  98.6316  51.2687 0000953  90.4124 269.7166 14.26730438511403"
      },
      "geometry": {
        "type": "Point",
        "coordinates": [
          46.95759164017902,
          31.23409283034976
        ]
      }
    }
  ]
}